0 SL-14 R/B
1 22652U 93030G   13283.19787646  .00000004  00000-0 -36610-4 0  6405
2 22652 082.5899 041.4638 0008282 018.8041 029.1419 12.63118255941350
0 SL-14 R/B
1 22652U 93030G   13285.49514867 -.00000005  00000-0 -85098-4 0  6410
2 22652 082.5905 039.9979 0008190 013.7186 035.2284 12.63118295941644
0 SL-14 R/B
1 22652U 93030G   13287.80647024  .00000017  00000-0  33350-4 0  6425
2 22652 082.5908 038.5231 0008087 008.3657 105.4368 12.63118029941931
0 SL-14 R/B
1 22652U 93030G   13290.40496060  .00000046  00000-0  19841-3 0  6438
2 22652 082.5909 036.8655 0007989 001.8277 041.9990 12.63117956942269
0 SL-14 R/B
1 22652U 93030G   13292.80769067  .00000050  00000-0  21713-3 0  6441
2 22652 082.5906 035.3324 0007893 356.3109 167.8168 12.63118164942569
0 SL-14 R/B
1 22652U 93030G   13295.40127181  .00000017  00000-0  37901-4 0  6456
2 22652 082.5907 033.6776 0007778 350.4861 081.3522 12.63118489942894
